IRIDIUM 26              
1 24903U 97043A   25326.57935608  .00000458  00000+0  14712-3 0  9996
2 24903  86.3976  44.0340 0001943  94.4554 265.6865 14.37304668479495
IRIDIUM 22              
1 24907U 97043E   25326.22273712  .00000450  00000+0  14801-3 0  9994
2 24907  86.3978  47.8592 0002079  97.9641 262.1792 14.36100823479450
DUMMY MASS 1            
1 24925U 97048A   25326.28333309  .00000562  00000+0  59465-4 0  9994
2 24925  86.3353  62.1706 0004875 322.1814  37.9068 14.87156100528628
DUMMY MASS 2            
1 24926U 97048B   25326.33917970  .00000566  00000+0  60230-4 0  9999
2 24926  86.3353  63.7821 0006031 334.5171  25.5756 14.86906805528400
IRIDIUM 29              
1 24944U 97051A   25326.39748628  .00000587  00000+0  19290-3 0  9993
2 24944  86.3949  77.4836 0002250  97.0654 263.0799 14.36635967475988
IRIDIUM 33              
1 24946U 97051C   25326.41528374  .00000441  00000+0  14798-3 0  9999
2 24946  86.3864  76.7515 0005822 284.5527  75.5024 14.35015721475438
IRIDIUM 28              
1 24948U 97051E   25326.34082625  .00000541  00000+0  17414-3 0  9996
2 24948  86.3956  74.9319 0001541  91.3162 268.8212 14.37536836476565
IRIDIUM 36              
1 24967U 97056C   25326.48823844  .00000495  00000+0  15815-3 0  9994
2 24967  86.3943 106.5001 0001839  96.8352 263.3055 14.37756878474960
